IRIDIUM 112             
1 41925U 17003J   25331.85136843  .00000298  00000+0  99348-4 0  9999
2 41925  86.3989 172.4295 0002037  82.2082 277.9345 14.34221140464418
IRIDIUM 111             
1 41926U 17003K   25331.83868896  .00000297  00000+0  99163-4 0  9992
2 41926  86.3992 172.5008 0001906  87.6839 272.4575 14.34219507464395
IRIDIUM 113             
1 42803U 17039A   25331.74887920  .00000093  00000+0  26137-4 0  9990
2 42803  86.3987  46.3608 0002029  92.4023 267.7405 14.34217596442317
IRIDIUM 123             
1 42804U 17039B   25331.86012790  .00000355  00000+0  11962-3 0  9999
2 42804  86.3964  77.7994 0001809 101.4234 258.7165 14.34221411441097
IRIDIUM 120             
1 42805U 17039C   25331.74254060  .00000360  00000+0  12160-3 0  9992
2 42805  86.3976  46.1721 0002312 105.2322 254.9130 14.34221365442302
IRIDIUM 115             
1 42806U 17039D   25331.92048246  .00000475  00000+0  13515-3 0  9992
2 42806  86.4513  46.1988 0001945 111.0740 249.0669 14.43285585445237
IRIDIUM 118             
1 42807U 17039E   25331.82208716  .00000378  00000+0  12808-3 0  9998
2 42807  86.3965  77.8142 0001979  92.3595 267.7828 14.34219447441084
IRIDIUM 117             
1 42808U 17039F   25331.84110031  .00000357  00000+0  12030-3 0  9997
2 42808  86.3963  77.7658 0001839  97.8189 262.3216 14.34221427441115
